[{"OBJECT_NAME":"STARLINK-31691","OBJECT_ID":"2024-097X","EPOCH":"2026-03-09T20:01:24.483360","MEAN_MOTION":15.27587247,"ECCENTRICITY":0.00019406,"INCLINATION":43.0044,"RA_OF_ASC_NODE":273.13,"ARG_OF_PERICENTER":276.3289,"MEAN_ANOMALY":83.7342,"EPHEMERIS_TYPE":0,"CLASSIFICATION_TYPE":"U","NORAD_CAT_ID":59856,"ELEMENT_SET_NO":999,"REV_AT_EPOCH":10194,"BSTAR":-6.2592988e-5,"MEAN_MOTION_DOT":-1.985e-5,"MEAN_MOTION_DDOT":0},{"OBJECT_NAME":"TEVEL2-3","OBJECT_ID":"2025-052J","EPOCH":"2026-03-09T15:29:22.754400","MEAN_MOTION":15.30377031,"ECCENTRICITY":0.0004761,"INCLINATION":97.3994,"RA_OF_ASC_NODE":324.7775,"ARG_OF_PERICENTER":105.7353,"MEAN_ANOMALY":254.4413,"EPHEMERIS_TYPE":0,"CLASSIFICATION_TYPE":"U","NORAD_CAT_ID":63218,"ELEMENT_SET_NO":999,"REV_AT_EPOCH":5485,"BSTAR":0.00069446,"MEAN_MOTION_DOT":0.00020365,"MEAN_MOTION_DDOT":0}]
